HULIANWANG DIGUI 14H    
1 66922U 25285H   25343.21666542 -.00000168  00000+0 -92299-5 0  9998
2 66922  50.0078 131.6457 0006916 289.4766  70.5392 14.05997598   416
HULIANWANG DIGUI 14J    
1 66923U 25285J   25341.93723132 -.00000153  00000+0 -47305-6 0  9998
2 66923  50.0075 136.8754 0005387 280.8946  79.1354 14.06515715   238
CZ-8A R/B               
1 66924U 25285K   25343.09852659 -.00000076  00000+0  32292-4 0  9995
2 66924  50.0062 131.6541 0119335  93.8913 267.5655 14.30499234   407
